OBJECT_NAME,OBJECT_ID,EPOCH,MEAN_MOTION,ECCENTRICITY,INCLINATION,RA_OF_ASC_NODE,ARG_OF_PERICENTER,MEAN_ANOMALY,EPHEMERIS_TYPE,CLASSIFICATION_TYPE,NORAD_CAT_ID,ELEMENT_SET_NO,REV_AT_EPOCH,BSTAR,MEAN_MOTION_DOT,MEAN_MOTION_DDOT
QAEM 100 R/B,2024-165A,2024-10-05T21:17:47.338944,15.0520179400,0.0006240000,64.0949000000,269.4238000000,256.8692000000,103.1724000000,0,U,61071,999,325,0.0008018600,0.0001133300,0E-10
CHAMRAN-1,2024-165B,2024-10-06T04:20:04.242624,15.0791559300,0.0015982000,64.0893000000,268.1596000000,289.7414000000,70.1976000000,0,U,61072,999,330,0.0012076000,0.0001853700,0E-10
2024-166A,2024-166A,2024-10-06T02:32:43.222848,15.8027900600,0.0014594000,96.7647000000,175.1661000000,166.1536000000,194.0136000000,0,U,61179,999,297,0.0004611800,0.0008755200,0E-10
2024-166B,2024-166B,2024-10-06T05:34:46.497504,15.8031373300,0.0014698000,96.7646000000,175.2906000000,165.4233000000,194.7463000000,0,U,61180,999,297,0.0004050000,0.0007691000,0E-10
QAEM 100 DEB,2024-165C,2024-10-06T02:08:23.506944,15.1339799200,0.0007989000,64.1221000000,268.3402000000,294.7213000000,65.3072000000,0,U,61181,999,300,0.0152200000,0.0028403900,0E-10
GSAT0232 (GALILEO 32),2024-167A,2024-10-05T01:32:57.298848,1.7317709000,0.0017154000,55.4085000000,238.3335000000,273.0908000000,86.6759000000,0,U,61182,999,29,0E-10,9.00E-8,0E-10
GSAT0226 (GALILEO 31),2024-167B,2024-10-04T12:53:21.055200,1.7137962300,0.0032528000,55.4090000000,238.3638000000,98.1835000000,216.1601000000,0,U,61183,999,28,0E-10,6.00E-8,0E-10
FALCON R/B,2024-167C,2024-10-05T02:30:15.156576,1.7261540000,0.0009961000,55.4106000000,238.3386000000,5.3768000000,354.5968000000,0,U,61184,999,27,0E-10,9.00E-8,0E-10
2024-168A,2024-168A,2024-10-05T07:25:50.620224,1.8009661400,0.0079150000,54.9288000000,323.6754000000,294.4029000000,64.8409000000,0,U,61185,999,30,0E-10,-6.600E-7,0E-10
2024-168B,2024-168B,2024-10-05T19:19:01.905024,1.8296917000,0.0117643000,54.9766000000,323.6550000000,177.3788000000,315.4676000000,0,U,61186,999,30,0E-10,-6.300E-7,0E-10
2024-168C,2024-168C,2024-10-05T17:21:52.012224,1.8432969400,0.0066473000,54.9873000000,323.6511000000,179.9659000000,305.6787000000,0,U,61187,999,31,0E-10,-6.300E-7,0E-10
2024-168D,2024-168D,2024-10-06T02:42:36.986976,4.4555213000,0.5800162000,55.0045000000,314.5274000000,175.6314000000,193.4626000000,0,U,61188,999,74,0.0016542000,0.0013723100,-9.39E-8
2024-169A,2024-169A,2024-10-06T04:54:36.288288,15.0847355000,0.0009387000,97.5966000000,5.4391000000,221.6423000000,138.4091000000,0,U,61189,999,241,0.0012571000,0.0001958500,0E-10
2024-169B,2024-169B,2024-10-06T04:48:28.982880,15.0893607500,0.0009247000,97.5867000000,5.4241000000,215.2022000000,144.8597000000,0,U,61190,999,241,0.0013221000,0.0002086600,0E-10
2024-169C,2024-169C,2024-10-06T04:40:12.439488,15.0963842600,0.0010022000,97.5943000000,5.4463000000,211.9846000000,148.0775000000,0,U,61191,999,241,0.0013169000,0.0002119200,0E-10
2024-169D,2024-169D,2024-10-06T04:34:38.097408,15.1025532200,0.0012633000,97.5872000000,5.4368000000,218.2956000000,141.7377000000,0,U,61192,999,241,0.0013598000,0.0002227700,0E-10
2024-169E,2024-169E,2024-10-06T04:29:36.286656,15.1069944000,0.0013919000,97.5974000000,5.4617000000,225.3511000000,134.6585000000,0,U,61193,999,241,0.0013057000,0.0002165800,0E-10
2024-169F,2024-169F,2024-10-06T04:18:03.707712,15.1158686700,0.0017023000,97.5951000000,5.4676000000,233.7035000000,126.2624000000,0,U,61194,999,241,0.0013068000,0.0002224300,0E-10
2024-170A,2024-170A,2024-10-06T03:25:39.448416,14.1338595100,0.0006576000,44.8585000000,27.8058000000,356.2232000000,3.8554000000,0,U,61195,999,221,0.0010487000,0.0000185300,0E-10
2024-170B,2024-170B,2024-10-06T03:25:46.397568,14.1324791000,0.0006739000,44.8598000000,27.8092000000,348.6847000000,11.3837000000,0,U,61196,999,221,0.0010576000,0.0000186500,0E-10
2024-170C,2024-170C,2024-10-06T03:29:04.518816,14.1320357500,0.0006696000,44.8635000000,27.8300000000,343.8861000000,16.1761000000,0,U,61197,999,221,0.0010202000,0.0000179200,0E-10
2024-170D,2024-170D,2024-10-06T03:31:01.711776,14.1306830700,0.0006899000,44.8621000000,27.8355000000,343.0065000000,17.0539000000,0,U,61198,999,223,0.0010330000,0.0000181200,0E-10
KZ-1A R/B,2024-170E,2024-10-06T05:05:27.355488,14.8638930500,0.0495864000,44.7458000000,18.0702000000,198.9944000000,159.1827000000,0,U,61199,999,235,0.0019407000,0.0021386600,0.0000149540
STARLINK-11209 [DTC],2024-171A,2024-10-05T22:00:00.999936,15.7672516400,0.0000865000,53.1590000000,220.1656000000,91.1771000000,162.9614000000,0,U,61200,999,366,0.0002187700,0.0003529300,0E-10
STARLINK-11257 [DTC],2024-171B,2024-10-06T04:00:01.999584,15.7673617700,0.0001135000,53.1585000000,218.8654000000,77.0953000000,184.7368000000,0,U,61201,999,368,-0.0001381700,-0.0002321300,0E-10
STARLINK-11309 [DTC],2024-171C,2024-10-05T22:00:00.999936,15.7678152200,0.0001248000,53.1601000000,220.0522000000,104.5371000000,205.0658000000,0,U,61202,999,366,-0.0005048600,-0.0008267600,0E-10
STARLINK-11292 [DTC],2024-171D,2024-10-06T04:00:01.999584,15.7673862000,0.0000521000,53.1597000000,218.7517000000,57.5560000000,259.7377000000,0,U,61203,999,368,-0.0001212600,-0.0002045900,0E-10
